{"fetched_at":"2026-07-14T06:34:52.706Z","source":"https://celestrak.org/NORAD/elements/gp.php?NAME=KINEIS&FORMAT=JSON","constellation":"kineis","records":[{"OBJECT_NAME":"KINEIS-2D","OBJECT_ID":"2025-028C","EPOCH":"2026-07-13T16:47:03.045120","CLASSIFICATION_TYPE":"U","MEAN_MOTION":14.75766323,"ECCENTRICITY":0.0004707,"INCLINATION":97.9273,"RA_OF_ASC_NODE":246.6338,"ARG_OF_PERICENTER":112.9949,"MEAN_ANOMALY":247.1757,"EPHEMERIS_TYPE":0,"NORAD_CAT_ID":62930,"ELEMENT_SET_NO":999,"REV_AT_EPOCH":7662,"BSTAR":0.0001307,"MEAN_MOTION_DOT":0.00000845,"MEAN_MOTION_DDOT":0},{"OBJECT_NAME":"KINEIS-2E","OBJECT_ID":"2025-028D","EPOCH":"2026-07-13T17:06:23.086080","CLASSIFICATION_TYPE":"U","MEAN_MOTION":14.77085184,"ECCENTRICITY":0.0002126,"INCLINATION":97.8942,"RA_OF_ASC_NODE":245.7805,"ARG_OF_PERICENTER":96.1921,"MEAN_ANOMALY":263.9532,"EPHEMERIS_TYPE":0,"NORAD_CAT_ID":62931,"ELEMENT_SET_NO":999,"REV_AT_EPOCH":7669,"BSTAR":0.00010876,"MEAN_MOTION_DOT":0.00000718,"MEAN_MOTION_DDOT":0},{"OBJECT_NAME":"KINEIS-2A","OBJECT_ID":"2025-028E","EPOCH":"2026-07-13T17:10:48.447264","CLASSIFICATION_TYPE":"U","MEAN_MOTION":14.73448438,"ECCENTRICITY":0.0006032,"INCLINATION":98.1289,"RA_OF_ASC_NODE":250.1428,"ARG_OF_PERICENTER":87.3259,"MEAN_ANOMALY":272.8639,"EPHEMERIS_TYPE":0,"NORAD_CAT_ID":62932,"ELEMENT_SET_NO":999,"REV_AT_EPOCH":7651,"BSTAR":0.00011142,"MEAN_MOTION_DOT":0.00000672,"MEAN_MOTION_DDOT":0},{"OBJECT_NAME":"KINEIS-2B","OBJECT_ID":"2025-028G","EPOCH":"2026-07-13T15:00:26.066016","CLASSIFICATION_TYPE":"U","MEAN_MOTION":14.73449039,"ECCENTRICITY":0.0004899,"INCLINATION":97.9656,"RA_OF_ASC_NODE":247.0065,"ARG_OF_PERICENTER":77.5314,"MEAN_ANOMALY":282.6442,"EPHEMERIS_TYPE":0,"NORAD_CAT_ID":62934,"ELEMENT_SET_NO":999,"REV_AT_EPOCH":7655,"BSTAR":0.00010926,"MEAN_MOTION_DOT":0.0000066,"MEAN_MOTION_DDOT":0},{"OBJECT_NAME":"KINEIS-4E","OBJECT_ID":"2025-056A","EPOCH":"2026-07-13T21:22:03.601344","CLASSIFICATION_TYPE":"U","MEAN_MOTION":14.72300939,"ECCENTRICITY":0.0003008,"INCLINATION":97.9067,"RA_OF_ASC_NODE":318.0485,"ARG_OF_PERICENTER":88.097,"MEAN_ANOMALY":272.0582,"EPHEMERIS_TYPE":0,"NORAD_CAT_ID":63300,"ELEMENT_SET_NO":999,"REV_AT_EPOCH":7105,"BSTAR":0.00013201,"MEAN_MOTION_DOT":0.00000786,"MEAN_MOTION_DDOT":0},{"OBJECT_NAME":"KINEIS-4C","OBJECT_ID":"2025-056B","EPOCH":"2026-07-13T18:24:11.221056","CLASSIFICATION_TYPE":"U","MEAN_MOTION":14.72322295,"ECCENTRICITY":0.0002675,"INCLINATION":97.912,"RA_OF_ASC_NODE":318.1764,"ARG_OF_PERICENTER":217.5825,"MEAN_ANOMALY":142.5196,"EPHEMERIS_TYPE":0,"NORAD_CAT_ID":63301,"ELEMENT_SET_NO":999,"REV_AT_EPOCH":7104,"BSTAR":0.00013131,"MEAN_MOTION_DOT":0.00000782,"MEAN_MOTION_DDOT":0},{"OBJECT_NAME":"KINEIS-4D","OBJECT_ID":"2025-056C","EPOCH":"2026-07-13T20:06:41.388192","CLASSIFICATION_TYPE":"U","MEAN_MOTION":14.72424807,"ECCENTRICITY":0.0001405,"INCLINATION":97.9041,"RA_OF_ASC_NODE":318.22,"ARG_OF_PERICENTER":222.5943,"MEAN_ANOMALY":137.5156,"EPHEMERIS_TYPE":0,"NORAD_CAT_ID":63302,"ELEMENT_SET_NO":999,"REV_AT_EPOCH":7105,"BSTAR":0.00013037,"MEAN_MOTION_DOT":0.00000778,"MEAN_MOTION_DDOT":0},{"OBJECT_NAME":"KINEIS-4A","OBJECT_ID":"2025-056D","EPOCH":"2026-07-13T20:57:28.935648","CLASSIFICATION_TYPE":"U","MEAN_MOTION":14.72331885,"ECCENTRICITY":0.0001984,"INCLINATION":97.9136,"RA_OF_ASC_NODE":318.2043,"ARG_OF_PERICENTER":155.2746,"MEAN_ANOMALY":204.8557,"EPHEMERIS_TYPE":0,"NORAD_CAT_ID":63303,"ELEMENT_SET_NO":999,"REV_AT_EPOCH":7105,"BSTAR":0.00012713,"MEAN_MOTION_DOT":0.00000756,"MEAN_MOTION_DDOT":0},{"OBJECT_NAME":"KINEIS-4B","OBJECT_ID":"2025-056E","EPOCH":"2026-07-13T20:32:35.897856","CLASSIFICATION_TYPE":"U","MEAN_MOTION":14.7232639,"ECCENTRICITY":0.0005184,"INCLINATION":97.9148,"RA_OF_ASC_NODE":318.2447,"ARG_OF_PERICENTER":197.2513,"MEAN_ANOMALY":162.8519,"EPHEMERIS_TYPE":0,"NORAD_CAT_ID":63304,"ELEMENT_SET_NO":999,"REV_AT_EPOCH":7104,"BSTAR":0.00012935,"MEAN_MOTION_DOT":0.0000077,"MEAN_MOTION_DDOT":0}]}
