KINEIS-2D               
1 62930U 25028C   26194.69934080  .00000845  00000+0  13070-3 0  9998
2 62930  97.9273 246.6338 0004707 112.9949 247.1757 14.75766323 76622
KINEIS-2E               
1 62931U 25028D   26194.71276720  .00000718  00000+0  10876-3 0  9992
2 62931  97.8942 245.7805 0002126  96.1921 263.9532 14.77085184 76695
KINEIS-2A               
1 62932U 25028E   26194.71583851  .00000672  00000+0  11142-3 0  9995
2 62932  98.1289 250.1428 0006032  87.3259 272.8639 14.73448438 76510
KINEIS-2B               
1 62934U 25028G   26194.62530169  .00000660  00000+0  10926-3 0  9997
2 62934  97.9656 247.0065 0004899  77.5314 282.6442 14.73449039 76554
KINEIS-4E               
1 63300U 25056A   26194.89031946  .00000786  00000+0  13201-3 0  9992
2 63300  97.9067 318.0485 0003008  88.0970 272.0582 14.72300939 71051
KINEIS-4C               
1 63301U 25056B   26194.76679654  .00000782  00000+0  13131-3 0  9991
2 63301  97.9120 318.1764 0002675 217.5825 142.5196 14.72322295 71040
KINEIS-4D               
1 63302U 25056C   26194.83797903  .00000778  00000+0  13037-3 0  9998
2 63302  97.9041 318.2200 0001405 222.5943 137.5156 14.72424807 71059
KINEIS-4A               
1 63303U 25056D   26194.87325157  .00000756  00000+0  12713-3 0  9997
2 63303  97.9136 318.2043 0001984 155.2746 204.8557 14.72331885 71051
KINEIS-4B               
1 63304U 25056E   26194.85597104  .00000770  00000+0  12935-3 0  9991
2 63304  97.9148 318.2447 0005184 197.2513 162.8519 14.72326390 71042
